0 NATO 2A
1 04353U 70021A   13280.34114571 -.00000103  00000-0  00000+0 0  2093
2 04353 009.9948 322.4320 0006223 159.6416 269.5658 01.00280784 79408
0 NATO 2A
1 04353U 70021A   13283.18980586 -.00000109  00000-0  00000+0 0  2103
2 04353 009.9915 322.4094 0006058 160.9373 216.6971 01.00281227 79430
0 NATO 2A
1 04353U 70021A   13291.60461285 -.00000122  00000-0  00000+0 0  2126
2 04353 009.9821 322.3395 0005451 160.2828 015.3123 01.00281969 79518
0 NATO 2A
1 04353U 70021A   13294.32221171 -.00000115  00000-0  00000+0 0  2139
2 04353 009.9792 322.3171 0005440 158.8829 277.8449 01.00281877 79546
